CCSDS_OMM_VERS = 2.0
CREATION_DATE  = 
ORIGINATOR     = 

OBJECT_NAME    = KUIPER-00191
OBJECT_ID      = 2025-301L
CENTER_NAME    = EARTH
REF_FRAME      = TEME
TIME_SYSTEM    = UTC
MEAN_ELEMENT_THEORY = SGP/SGP4

EPOCH          = 2026-01-11T03:01:23.007936
MEAN_MOTION    = 15.35866371
ECCENTRICITY   = .00066588
INCLINATION    = 51.8688
RA_OF_ASC_NODE = 343.4439
ARG_OF_PERICENTER = 178.3792
MEAN_ANOMALY   = 181.7216

EPHEMERIS_TYPE = 0
CLASSIFICATION_TYPE = U
NORAD_CAT_ID   = 67143
ELEMENT_SET_NO = 999
REV_AT_EPOCH   = 491
BSTAR          = .8685706E-3
MEAN_MOTION_DOT = .30541E-3
MEAN_MOTION_DDOT = 0

CCSDS_OMM_VERS = 2.0
CREATION_DATE  = 
ORIGINATOR     = 

OBJECT_NAME    = KUIPER-00196
OBJECT_ID      = 2025-301M
CENTER_NAME    = EARTH
REF_FRAME      = TEME
TIME_SYSTEM    = UTC
MEAN_ELEMENT_THEORY = SGP/SGP4

EPOCH          = 2026-01-11T04:15:04.224672
MEAN_MOTION    = 15.36580463
ECCENTRICITY   = .00036682
INCLINATION    = 51.8745
RA_OF_ASC_NODE = 343.0450
ARG_OF_PERICENTER = 140.4893
MEAN_ANOMALY   = 219.6362

EPHEMERIS_TYPE = 0
CLASSIFICATION_TYPE = U
NORAD_CAT_ID   = 67144
ELEMENT_SET_NO = 999
REV_AT_EPOCH   = 489
BSTAR          = .83600568E-3
MEAN_MOTION_DOT = .30054E-3
MEAN_MOTION_DDOT = 0

CCSDS_OMM_VERS = 2.0
CREATION_DATE  = 
ORIGINATOR     = 

OBJECT_NAME    = KUIPER-00204
OBJECT_ID      = 2025-301N
CENTER_NAME    = EARTH
REF_FRAME      = TEME
TIME_SYSTEM    = UTC
MEAN_ELEMENT_THEORY = SGP/SGP4

EPOCH          = 2026-01-11T06:00:02.000160
MEAN_MOTION    = 15.27069328
ECCENTRICITY   = .00055029
INCLINATION    = 51.8798
RA_OF_ASC_NODE = 342.8683
ARG_OF_PERICENTER = 117.2870
MEAN_ANOMALY   = 178.8357

EPHEMERIS_TYPE = 0
CLASSIFICATION_TYPE = U
NORAD_CAT_ID   = 67145
ELEMENT_SET_NO = 999
REV_AT_EPOCH   = 501
BSTAR          = -.41903532E-1
MEAN_MOTION_DOT = -.1037828E-1
MEAN_MOTION_DDOT = 0

CCSDS_OMM_VERS = 2.0
CREATION_DATE  = 
ORIGINATOR     = 

OBJECT_NAME    = KUIPER-00210
OBJECT_ID      = 2025-301P
CENTER_NAME    = EARTH
REF_FRAME      = TEME
TIME_SYSTEM    = UTC
MEAN_ELEMENT_THEORY = SGP/SGP4

EPOCH          = 2026-01-11T04:59:00.103776
MEAN_MOTION    = 15.34850586
ECCENTRICITY   = .00105725
INCLINATION    = 51.8614
RA_OF_ASC_NODE = 343.2240
ARG_OF_PERICENTER = 201.2736
MEAN_ANOMALY   = 158.7811

EPHEMERIS_TYPE = 0
CLASSIFICATION_TYPE = U
NORAD_CAT_ID   = 67146
ELEMENT_SET_NO = 999
REV_AT_EPOCH   = 506
BSTAR          = .10478726E-2
MEAN_MOTION_DOT = .35798E-3
MEAN_MOTION_DDOT = 0

CCSDS_OMM_VERS = 2.0
CREATION_DATE  = 
ORIGINATOR     = 

OBJECT_NAME    = KUIPER-00221
OBJECT_ID      = 2025-301Q
CENTER_NAME    = EARTH
REF_FRAME      = TEME
TIME_SYSTEM    = UTC
MEAN_ELEMENT_THEORY = SGP/SGP4

EPOCH          = 2026-01-11T05:56:24.474336
MEAN_MOTION    = 15.34146652
ECCENTRICITY   = .0012339
INCLINATION    = 51.8757
RA_OF_ASC_NODE = 342.7665
ARG_OF_PERICENTER = 157.6206
MEAN_ANOMALY   = 202.5320

EPHEMERIS_TYPE = 0
CLASSIFICATION_TYPE = U
NORAD_CAT_ID   = 67147
ELEMENT_SET_NO = 999
REV_AT_EPOCH   = 490
BSTAR          = .14498909E-2
MEAN_MOTION_DOT = .48687E-3
MEAN_MOTION_DDOT = 0

CCSDS_OMM_VERS = 2.0
CREATION_DATE  = 
ORIGINATOR     = 

OBJECT_NAME    = KUIPER-00232
OBJECT_ID      = 2025-301R
CENTER_NAME    = EARTH
REF_FRAME      = TEME
TIME_SYSTEM    = UTC
MEAN_ELEMENT_THEORY = SGP/SGP4

EPOCH          = 2026-01-11T07:06:02.351520
MEAN_MOTION    = 15.37215464
ECCENTRICITY   = .00021651
INCLINATION    = 51.8755
RA_OF_ASC_NODE = 342.3434
ARG_OF_PERICENTER = 81.8018
MEAN_ANOMALY   = 278.3215

EPHEMERIS_TYPE = 0
CLASSIFICATION_TYPE = U
NORAD_CAT_ID   = 67148
ELEMENT_SET_NO = 999
REV_AT_EPOCH   = 491
BSTAR          = .10625522E-2
MEAN_MOTION_DOT = .39146E-3
MEAN_MOTION_DDOT = 0

CCSDS_OMM_VERS = 2.0
CREATION_DATE  = 
ORIGINATOR     = 

OBJECT_NAME    = KUIPER-00241
OBJECT_ID      = 2025-301S
CENTER_NAME    = EARTH
REF_FRAME      = TEME
TIME_SYSTEM    = UTC
MEAN_ELEMENT_THEORY = SGP/SGP4

EPOCH          = 2026-01-11T07:16:49.574784
MEAN_MOTION    = 15.36816423
ECCENTRICITY   = .00027716
INCLINATION    = 51.8758
RA_OF_ASC_NODE = 342.3899
ARG_OF_PERICENTER = 134.7039
MEAN_ANOMALY   = 225.4174

EPHEMERIS_TYPE = 0
CLASSIFICATION_TYPE = U
NORAD_CAT_ID   = 67149
ELEMENT_SET_NO = 999
REV_AT_EPOCH   = 524
BSTAR          = .92262807E-3
MEAN_MOTION_DOT = .33477E-3
MEAN_MOTION_DDOT = 0

CCSDS_OMM_VERS = 2.0
CREATION_DATE  = 
ORIGINATOR     = 

OBJECT_NAME    = KUIPER-00245
OBJECT_ID      = 2025-301T
CENTER_NAME    = EARTH
REF_FRAME      = TEME
TIME_SYSTEM    = UTC
MEAN_ELEMENT_THEORY = SGP/SGP4

EPOCH          = 2026-01-11T06:00:02.000160
MEAN_MOTION    = 15.27322473
ECCENTRICITY   = .00078936
INCLINATION    = 51.8757
RA_OF_ASC_NODE = 342.9743
ARG_OF_PERICENTER = 175.9630
MEAN_ANOMALY   = 72.0471

EPHEMERIS_TYPE = 0
CLASSIFICATION_TYPE = U
NORAD_CAT_ID   = 67150
ELEMENT_SET_NO = 999
REV_AT_EPOCH   = 438
BSTAR          = -.22081317E-1
MEAN_MOTION_DOT = -.557548E-2
MEAN_MOTION_DDOT = 0

CCSDS_OMM_VERS = 2.0
CREATION_DATE  = 
ORIGINATOR     = 

OBJECT_NAME    = KUIPER-00246
OBJECT_ID      = 2025-301U
CENTER_NAME    = EARTH
REF_FRAME      = TEME
TIME_SYSTEM    = UTC
MEAN_ELEMENT_THEORY = SGP/SGP4

EPOCH          = 2026-01-11T07:23:43.414368
MEAN_MOTION    = 15.36554536
ECCENTRICITY   = .0003632
INCLINATION    = 51.8756
RA_OF_ASC_NODE = 342.4235
ARG_OF_PERICENTER = 159.5549
MEAN_ANOMALY   = 200.5584

EPHEMERIS_TYPE = 0
CLASSIFICATION_TYPE = U
NORAD_CAT_ID   = 67151
ELEMENT_SET_NO = 999
REV_AT_EPOCH   = 493
BSTAR          = .98117632E-3
MEAN_MOTION_DOT = .35336E-3
MEAN_MOTION_DDOT = 0

CCSDS_OMM_VERS = 2.0
CREATION_DATE  = 
ORIGINATOR     = 

OBJECT_NAME    = KUIPER-00247
OBJECT_ID      = 2025-301V
CENTER_NAME    = EARTH
REF_FRAME      = TEME
TIME_SYSTEM    = UTC
MEAN_ELEMENT_THEORY = SGP/SGP4

EPOCH          = 2026-01-11T05:04:19.994592
MEAN_MOTION    = 15.34529827
ECCENTRICITY   = .00111709
INCLINATION    = 51.8641
RA_OF_ASC_NODE = 343.2528
ARG_OF_PERICENTER = 202.7957
MEAN_ANOMALY   = 157.2534

EPHEMERIS_TYPE = 0
CLASSIFICATION_TYPE = U
NORAD_CAT_ID   = 67152
ELEMENT_SET_NO = 999
REV_AT_EPOCH   = 489
BSTAR          = .89001857E-3
MEAN_MOTION_DOT = .30019E-3
MEAN_MOTION_DDOT = 0

CCSDS_OMM_VERS = 2.0
CREATION_DATE  = 
ORIGINATOR     = 

OBJECT_NAME    = KUIPER-00248
OBJECT_ID      = 2025-301W
CENTER_NAME    = EARTH
REF_FRAME      = TEME
TIME_SYSTEM    = UTC
MEAN_ELEMENT_THEORY = SGP/SGP4

EPOCH          = 2026-01-11T03:12:52.507584
MEAN_MOTION    = 15.35289135
ECCENTRICITY   = .00083225
INCLINATION    = 51.8685
RA_OF_ASC_NODE = 343.4950
ARG_OF_PERICENTER = 190.2800
MEAN_ANOMALY   = 169.8017

EPHEMERIS_TYPE = 0
CLASSIFICATION_TYPE = U
NORAD_CAT_ID   = 67153
ELEMENT_SET_NO = 999
REV_AT_EPOCH   = 505
BSTAR          = .83502446E-3
MEAN_MOTION_DOT = .28808E-3
MEAN_MOTION_DDOT = 0

CCSDS_OMM_VERS = 2.0
CREATION_DATE  = 
ORIGINATOR     = 

OBJECT_NAME    = KUIPER-00249
OBJECT_ID      = 2025-301X
CENTER_NAME    = EARTH
REF_FRAME      = TEME
TIME_SYSTEM    = UTC
MEAN_ELEMENT_THEORY = SGP/SGP4

EPOCH          = 2026-01-11T03:08:03.408000
MEAN_MOTION    = 15.35653859
ECCENTRICITY   = .00082617
INCLINATION    = 51.8666
RA_OF_ASC_NODE = 343.4704
ARG_OF_PERICENTER = 189.8645
MEAN_ANOMALY   = 170.2180

EPHEMERIS_TYPE = 0
CLASSIFICATION_TYPE = U
NORAD_CAT_ID   = 67154
ELEMENT_SET_NO = 999
REV_AT_EPOCH   = 488
BSTAR          = .85078592E-3
MEAN_MOTION_DOT = .2971E-3
MEAN_MOTION_DDOT = 0

